SL-3 R/B                
1 19046U 88032B   24016.54944151  .00006487  00000+0  41828-3 0  9997
2 19046  97.4364   2.8631 0035205  64.4348 296.0513 15.08114215933592
SL-16 R/B               
1 19120U 88039B   24016.16301093 -.00000007  00000+0  19542-4 0  9999
2 19120  71.0150 285.0176 0019560 103.5391 256.7915 14.19369957847199
COSMOS 1953             
1 19210U 88050A   24016.56682606  .00008054  00000+0  45748-3 0  9993
2 19210  82.5127 216.4570 0015374 344.5261  15.5498 15.12680488918777
SL-8 R/B                
1 19257U 88053B   24016.60339553  .00000591  00000+0  20340-3 0  9991
2 19257  74.0482 114.9339 0019197 132.0490 331.6348 14.38031485863997
COSMOS 1975             
1 19573U 88093A   24016.51693638  .00009975  00000+0  58000-3 0  9992
2 19573  82.5273 173.7348 0016462  29.1932 331.0215 15.11841220900438
SL-14 R/B               
1 19574U 88093B   24016.63328564  .00000801  00000+0  92467-4 0  9994
2 19574  82.5300  56.2991 0022791 105.8824  12.3916 14.84197064884823
SL-16 R/B               
1 19650U 88102B   24016.36910196 -.00000137  00000+0 -45390-4 0  9995
2 19650  71.0002 359.4151 0012280 129.8938 230.3267 14.15935148816003
INTERCOSMOS 24          
1 20261U 89080A   24016.59223693  .00001491  00000+0  44515-3 0  9994
2 20261  82.6049 253.1455 1196680 307.5036  42.2979 12.57537878568287
SL-14 R/B               
1 20262U 89080C   24016.32571066  .00000377  00000+0  10811-3 0  9990
2 20262  82.5955 315.9245 1234435 174.1785 187.5325 12.49564207562275
DELTA 1 R/B             
1 20323U 89089B   24016.42383469  .00001100  00000+0  28814-3 0  9993
2 20323  97.0987 335.0024 0072236  73.7907 287.1223 14.49217277782222
ARIANE 40 R/B           
1 20443U 90005H   24016.59441868  .00000611  00000+0  21298-3 0  9997
2 20443  98.4149  85.2747 0010937  41.6284 318.5734 14.38755538780159
DELTA 2 R/B(1)          
1 20453U 90008B   24016.45576185  .00015278  00000+0  64285-3 0  9995
2 20453  35.6209  42.4711 0221345 151.0575 210.2624 15.03120127806486
COSMOS 2058             
1 20465U 90010A   24016.56575653  .00005042  00000+0  38117-3 0  9995
2 20465  82.4871  92.3482 0015497 104.4977 255.7968 15.02074582824308
SL-14 R/B               
1 20466U 90010B   24016.17395123  .00000895  00000+0  10907-3 0  9993
2 20466  82.5033 282.5036 0020483   4.6449 355.4951 14.82200274812363
SL-14 R/B               
1 20511U 90018B   24016.59678114  .00000934  00000+0  11779-3 0  9994
2 20511  82.5202 234.3397 0017393 141.9150 218.3296 14.80828614806631
HST                     
1 20580U 90037B   24016.14336645  .00007699  00000+0  38516-3 0  9995
2 20580  28.4691 288.7336 0002498 166.3960 304.8254 15.15563802653778
SL-16 R/B               
1 20625U 90046B   24016.59190628  .00000440  00000+0  25246-3 0  9996
2 20625  70.9995 142.2878 0012531  48.9818 311.2385 14.14799352737621
COSMOS 2084             
1 20663U 90055A   24016.61694821  .00005374  00000+0  41172-3 0  9992
2 20663  62.7913 110.7622 0125224 105.8144 255.6800 14.97005620818710
SL-6 R/B(2)             
1 20666U 90055D   24016.42870373  .00003506  00000+0  28807-3 0  9997
2 20666  62.7851  25.0575 0105785 127.7715 233.3021 14.96846597820655
SL-8 R/B                
1 20775U 90078B   24016.61348733  .00012188  00000+0  50203-3 0  9995
2 20775  82.9161 216.8354 0493085  62.4996 302.5424 14.54898239694107
SL-8 R/B                
1 21088U 91006B   24016.56708260  .00000186  00000+0  17199-3 0  9996
2 21088  82.9411  32.5558 0023879  69.9472  45.7736 13.77307710656263
OKEAN-3                 
1 21397U 91039A   24016.49712119  .00004835  00000+0  41750-3 0  9990
2 21397  82.5204  11.2041 0018620 103.1905 257.1396 14.96916589747548
COSMOS 2151             
1 21422U 91042A   24016.54089499  .00003850  00000+0  34987-3 0  9997
2 21422  82.4997 116.0738 0013922 173.0296 187.1122 14.94940645745973
SL-14 R/B               
1 21423U 91042B   24016.56438671  .00000694  00000+0  87465-4 0  9993
2 21423  82.4918 233.8875 0016115 295.2519  64.7023 14.80549909737142
ERS-1                   
1 21574U 91050A   24016.52888597  .00000707  00000+0  24575-3 0  9998
2 21574  98.7657   4.8952 0032771   5.9344 354.2224 14.38353378703104
ARIANE 40 R/B           
1 21610U 91050F   24016.61226118  .00000714  00000+0  23219-3 0  9996
2 21610  98.3120  82.8010 0002063 290.2188  69.8780 14.41652158706115
INTERCOSMOS 25          
1 21819U 91086A   24016.56264290  .00002380  00000+0  47379-3 0  9997
2 21819  82.6042  62.0914 1503605   0.3158 359.8536 12.08113372401961
SL-8 R/B                
1 21876U 92008B   24016.44440406  .00000133  00000+0  12118-3 0  9994
2 21876  82.9285 130.1854 0035340 160.3080 270.9142 13.75787654601718
SL-8 R/B                
1 21938U 92020B   24016.55115977  .00000016  00000+0  82283-6 0  9994
2 21938  82.9301  15.3516 0028369 326.0334 156.1633 13.75387777593476
COSMOS 2219             
1 22219U 92076A   24016.59565151  .00000163  00000+0  11088-3 0  9990
2 22219  71.0571 214.7818 0019435 311.7947  48.1514 14.13811229607686
SL-16 R/B               
1 22220U 92076B   24016.55845635  .00000127  00000+0  87346-4 0  9997
2 22220  70.9998  37.7355 0014207 217.3054 270.8841 14.16615969610913
COSMOS 2221             
1 22236U 92080A   24016.54602687  .00004043  00000+0  40752-3 0  9996
2 22236  82.5078 306.0859 0014252 299.5874  60.3924 14.90845720663881
SL-16 R/B               
1 22285U 92093B   24016.58736685 -.00000122  00000+0 -38330-4 0  9990
2 22285  71.0194 207.9352 0002453  35.7181 324.4106 14.15216307602356
COSMOS 2228             
1 22286U 92094A   24016.19686140  .00003345  00000+0  33251-3 0  9993
2 22286  82.5185 264.1445 0021509  53.2078 307.1111 14.91247514659045
SL-16 R/B               
1 22566U 93016B   24016.55457292 -.00000070  00000+0 -11621-4 0  9995
2 22566  71.0080  59.7437 0007900  70.0372 290.1601 14.15101631591376
COSMOS 2242             
1 22626U 93024A   24016.26657295  .00003636  00000+0  36442-3 0  9990
2 22626  82.5217 292.8224 0019649  54.9055 305.4002 14.90965767663420
SL-16 R/B               
1 22803U 93059B   24016.60098598  .00000340  00000+0  19283-3 0  9991
2 22803  70.9883 222.2180 0018637 317.6898  42.2787 14.16986270568593
ARIANE 40 R/B           
1 22830U 93061H   24016.61245414  .00000473  00000+0  19246-3 0  9992
2 22830  98.5920  85.9268 0011861  79.9154 280.3367 14.31965493581996
COSMOS 2278             
1 23087U 94023A   24016.38978553  .00000370  00000+0  21934-3 0  9990
2 23087  71.0531  13.5030 0008037 158.7236 201.4222 14.14030621534064
SL-16 R/B               
1 23088U 94023B   24016.11746130  .00000331  00000+0  19626-3 0  9998
2 23088  70.9991 276.2247 0002054   8.1173 351.9982 14.14808686535252
SL-16 R/B               
1 23343U 94074B   24016.60557664  .00000920  00000+0  13497-3 0  9998
2 23343  97.8114  64.4396 0005492 241.3045 237.2353 14.77800385571526
SL-16 R/B               
1 23405U 94077B   24016.61520511  .00000307  00000+0  18182-3 0  9997
2 23405  70.9810 199.6773 0004806 271.5782  88.4790 14.15355044505427
ERS-2                   
1 23560U 95021A   24016.59777655  .00275715  00000+0  15923-2 0  9995
2 23560  98.5201  26.3781 0003832 109.5410 250.6267 15.77857105542315
ARIANE 40+ R/B          
1 23561U 95021B   24016.62679318  .00000609  00000+0  21300-3 0  9992
2 23561  98.5486  83.8794 0006219 331.8694 150.5604 14.38671693506606
SL-16 R/B               
1 23705U 95058B   24016.44332954 -.00000177  00000+0 -66526-4 0  9996
2 23705  71.0222  24.4181 0014580 239.4545 120.5139 14.15279934457027
SL-16 R/B               
1 24298U 96051B   24016.47163394 -.00000121  00000+0 -38850-4 0  9999
2 24298  70.8177  31.2113 0017379 217.7451 142.2451 14.12507399411053
ORBVIEW 2 (SEASTAR)     
1 24883U 97037A   24016.38609427  .00000828  00000+0  31087-3 0  9992
2 24883  98.7502 154.1717 0002023 181.7215 178.3962 14.34323107396132
SL-16 R/B               
1 25400U 98043G   24016.40973448  .00000205  00000+0  10494-3 0  9994
2 25400  98.7301 317.9678 0010693 124.7644 235.4543 14.25688356327364
SL-16 R/B               
1 25407U 98045B   24016.47977032  .00000191  00000+0  12118-3 0  9992
2 25407  71.0116  28.3751 0006075 156.6376 203.5025 14.15966341316225
ISS (ZARYA)             
1 25544U 98067A   24016.74384874  .00020772  00000+0  37770-3 0  9992
2 25544  51.6424 350.7005 0005028  97.5750 318.5294 15.49480455434910
CZ-4B R/B               
1 25732U 99025C   24016.57492066  .00000140  00000+0  89127-4 0  9991
2 25732  98.7758  63.6925 0038244  73.8826  48.4044 14.17906761277171
OKEAN-O                 
1 25860U 99039A   24016.57942158  .00001383  00000+0  19884-3 0  9992
2 25860  98.0604  69.0679 0001361  66.0900 294.0453 14.78027794318614
SL-16 R/B               
1 25861U 99039B   24016.56202015  .00001140  00000+0  15859-3 0  9992
2 25861  98.1123  61.2499 0013983 271.8546  88.1064 14.79750707320960
DELTA 2 R/B             
1 25876U 99041E   24016.61580789  .00005164  00000+0  89413-3 0  9991
2 25876  51.7625 179.2191 0520568 204.4482 153.0932 14.07336502252560
HELIOS 1B               
1 25977U 99064A   24016.60170762  .00001572  00000+0  19616-3 0  9990
2 25977  98.2658 242.9896 0002482  84.7150 275.4346 14.83913396568985
TERRA                   
1 25994U 99068A   24016.57857866  .00000973  00000+0  21425-3 0  9991
2 25994  98.0701  84.4330 0003036 109.3541  27.1422 14.59538693280789
SL-16 R/B               
1 26070U 00006B   24016.22217202 -.00000133  00000+0 -43590-4 0  9995
2 26070  71.0031 304.9359 0018966 291.0828  68.8267 14.15596991237674
TITAN 4B R/B            
1 26474U 00047B   24016.57162043  .00005033  00000+0  39613-3 0  9990
2 26474  67.9933  68.0071 0051684 202.4872 157.4009 15.00594339275057
ENVISAT                 
1 27386U 02009A   24016.49841972  .00000347  00000+0  12743-3 0  9997
2 27386  98.2617 343.0832 0001090  86.8135  23.8880 14.38482591146550
